NORAD_CAT_ID,OBJECT_NAME,OBJECT_TYPE,EPOCH,MEAN_MOTION,ECCENTRICITY,INCLINATION,RA_OF_ASC_NODE,ARG_OF_PERICENTER,MEAN_ANOMALY,BSTAR,MEAN_MOTION_DOT,MEAN_MOTION_DDOT,TLE_LINE0,TLE_LINE1,TLE_LINE2,SEMIMAJOR_AXIS,PERIOD,APOGEE,PERIGEE,DECAYED
50204.0,STARLINK-3254,PAYLOAD,2023-02-03 01:51:46,15.08845997,0.0001458,53.2119,274.6421,94.6626,265.4532,1.958e-05,2.4e-07,0.0,0 STARLINK-3254,1 50204U 21125BA  23034.07761809  .00000024  00000-0  19580-4 0  9995,2 50204  53.2119 274.6421 0001458  94.6626 265.4532 15.08845997 66107,6917.862,95.437,540.736,538.718,0.0
50204.0,STARLINK-3254,PAYLOAD,2023-02-03 16:10:15,15.0882687,0.0001583,53.2105,271.9658,99.8663,260.2508,8.1792e-05,1.014e-05,0.0,0 STARLINK-3254,1 50204U 21125BA  23034.67378940  .00001014  00000-0  81792-4 0  9995,2 50204  53.2105 271.9658 0001583  99.8663 260.2508 15.08826870 63068,6917.921,95.438,540.881,538.69,0.0
50204.0,STARLINK-3254,PAYLOAD,2023-02-04 22:22:33,15.08850265,0.000101,53.2137,266.3154,94.1515,265.9593,0.00015915,2.247e-05,0.0,0 STARLINK-3254,1 50204U 21125BA  23035.93233718  .00002247  00000-0  15915-3 0  9990,2 50204  53.2137 266.3154 0001010  94.1515 265.9593 15.08850265 63253,6917.849,95.437,540.413,539.015,0.0
50204.0,STARLINK-3254,PAYLOAD,2023-02-05 14:16:26,15.08836412,0.0001533,53.2115,263.3416,93.0808,267.036,0.00010123,1.323e-05,0.0,0 STARLINK-3254,1 50204U 21125BA  23036.59474890  .00001323  00000-0  10123-3 0  9991,2 50204  53.2115 263.3416 0001533  93.0808 267.0360 15.08836412 63354,6917.891,95.438,540.817,538.696,0.0
50204.0,STARLINK-3254,PAYLOAD,2023-02-05 22:13:21,15.08838216,0.0001198,53.2122,261.8553,88.0256,272.0873,7.4909e-05,9.04e-06,0.0,0 STARLINK-3254,1 50204U 21125BA  23036.92594811  .00000904  00000-0  74909-4 0  9991,2 50204  53.2122 261.8553 0001198  88.0256 272.0873 15.08838216 66537,6917.886,95.438,540.58,538.922,0.0
50204.0,STARLINK-3254,PAYLOAD,2023-02-06 14:07:13,15.088423,0.0001218,53.2107,258.8803,91.1401,268.9731,0.00019652,2.841e-05,0.0,0 STARLINK-3254,1 50204U 21125BA  23037.58834783  .00002841  00000-0  19652-3 0  9994,2 50204  53.2107 258.8803 0001218  91.1401 268.9731 15.08842300 66631,6917.873,95.437,540.581,538.896,0.0
50204.0,STARLINK-3254,PAYLOAD,2023-02-06 20:28:45,15.08845653,0.0001408,53.2131,257.6927,91.4681,268.6472,0.00030641,4.593e-05,0.0,0 STARLINK-3254,1 50204U 21125BA  23037.85330769  .00004593  00000-0  30641-3 0  9996,2 50204  53.2131 257.6927 0001408  91.4681 268.6472 15.08845653 66673,6917.863,95.437,540.702,538.754,0.0
50204.0,STARLINK-3254,PAYLOAD,2023-02-06 22:04:08,15.08847591,0.0001209,53.2111,257.3936,90.198,269.915,0.00034581,5.221e-05,0.0,0 STARLINK-3254,1 50204U 21125BA  23037.91954639  .00005221  00000-0  34581-3 0  9997,2 50204  53.2111 257.3936 0001209  90.1980 269.9150 15.08847591 63559,6917.857,95.437,540.559,538.886,0.0
50204.0,STARLINK-3254,PAYLOAD,2023-02-07 13:58:00,15.0884231,0.0001336,53.2122,254.421,89.0445,271.07,0.000238,3.502e-05,0.0,0 STARLINK-3254,1 50204U 21125BA  23038.58194946  .00003502  00000-0  23800-3 0  9990,2 50204  53.2122 254.4210 0001336  89.0445 271.0700 15.08842310 63658,6917.873,95.437,540.663,538.814,0.0
50204.0,STARLINK-3254,PAYLOAD,2023-02-07 21:54:55,15.08847117,0.0001276,53.2119,252.9336,86.861,273.2528,0.00027692,4.123e-05,0.0,0 STARLINK-3254,1 50204U 21125BA  23038.91314740  .00004123  00000-0  27692-3 0  9996,2 50204  53.2119 252.9336 0001276  86.8610 273.2528 15.08847117 66833,6917.859,95.437,540.606,538.841,0.0
50204.0,STARLINK-3254,PAYLOAD,2023-02-08 18:34:56,15.0884385,0.0001058,53.212,249.0669,94.2713,265.84,0.00012477,1.699e-05,0.0,0 STARLINK-3254,1 50204U 21125BA  23039.77426747  .00001699  00000-0  12477-3 0  9992,2 50204  53.2120 249.0669 0001058  94.2713 265.8400 15.08843850 63839,6917.869,95.437,540.466,539.002,0.0
50204.0,STARLINK-3254,PAYLOAD,2023-02-08 20:10:19,15.0884415,0.0001143,53.2118,248.769,95.3074,264.8049,0.00013778,1.906e-05,0.0,0 STARLINK-3254,1 50204U 21125BA  23039.84050728  .00001906  00000-0  13778-3 0  9998,2 50204  53.2118 248.7690 0001143  95.3074 264.8049 15.08844150 66973,6917.868,95.437,540.523,538.942,0.0
50204.0,STARLINK-3254,PAYLOAD,2023-02-09 10:28:48,15.08836304,9.75e-05,53.2128,246.0922,98.8454,261.2649,7.89e-05,9.68e-06,0.0,0 STARLINK-3254,1 50204U 21125BA  23040.43667213  .00000968  00000-0  78900-4 0  9994,2 50204  53.2128 246.0922 0000975  98.8454 261.2649 15.08836304 67065,6917.892,95.438,540.431,539.082,0.0
50204.0,STARLINK-3254,PAYLOAD,2023-02-09 20:01:07,15.08837855,0.0001072,53.2126,244.3083,84.6315,275.48,1.011e-05,-1.27e-06,0.0,0 STARLINK-3254,1 50204U 21125BA  23040.83411290 -.00000127  00000-0  10110-4 0  9997,2 50204  53.2126 244.3083 0001072  84.6315 275.4800 15.08837855 63996,6917.887,95.438,540.494,539.01,0.0
50204.0,STARLINK-3254,PAYLOAD,2023-02-10 19:51:54,15.08843488,0.0001072,53.2127,239.8477,77.3226,282.7886,0.00015984,2.257e-05,0.0,0 STARLINK-3254,1 50204U 21125BA  23041.82771119  .00002257  00000-0  15984-3 0  9994,2 50204  53.2127 239.8477 0001072  77.3226 282.7886 15.08843488 67272,6917.87,95.437,540.476,538.993,0.0
50204.0,STARLINK-3254,PAYLOAD,2023-02-11 19:42:41,15.0883392,0.0001078,53.2129,235.3858,81.5995,278.5119,0.00013682,1.89e-05,0.0,0 STARLINK-3254,1 50204U 21125BA  23042.82131705  .00001890  00000-0  13682-3 0  9991,2 50204  53.2129 235.3858 0001078  81.5995 278.5119 15.08833920 67423,6917.899,95.438,540.51,539.018,0.0
50204.0,STARLINK-3254,PAYLOAD,2023-02-11 22:53:27,15.08836633,0.0001104,53.2131,234.7909,79.7135,280.3982,6.1551e-05,6.92e-06,0.0,0 STARLINK-3254,1 50204U 21125BA  23042.95379557  .00000692  00000-0  61551-4 0  9992,2 50204  53.2131 234.7909 0001104  79.7135 280.3982 15.08836633 64319,6917.891,95.438,540.519,538.992,0.0
50204.0,STARLINK-3254,PAYLOAD,2023-02-12 13:11:56,15.08837738,0.0001015,53.2139,232.1155,104.3317,255.7787,3.7405e-05,3.08e-06,0.0,0 STARLINK-3254,1 50204U 21125BA  23043.54995731  .00000308  00000-0  37405-4 0  9991,2 50204  53.2139 232.1155 0001015 104.3317 255.7787 15.08837738 67533,6917.887,95.438,540.454,539.05,0.0
50204.0,STARLINK-3254,PAYLOAD,2023-02-12 19:33:28,15.08851724,0.0001027,53.2136,230.9276,106.7449,253.3656,-4.3131e-05,-9.74e-06,0.0,0 STARLINK-3254,1 50204U 21125BA  23043.81491087 -.00000974  00000-0 -43131-4 0  9990,2 50204  53.2136 230.9276 0001027 106.7449 253.3656 15.08851724 64442,6917.845,95.437,540.42,538.999,0.0
50204.0,STARLINK-3254,PAYLOAD,2023-02-13 13:02:43,15.08835906,8.93e-05,53.2138,227.6557,92.7759,267.3335,6.026e-05,6.71e-06,0.0,0 STARLINK-3254,1 50204U 21125BA  23044.54356008  .00000671  00000-0  60260-4 0  9998,2 50204  53.2138 227.6557 0000893  92.7759 267.3335 15.08835906 64552,6917.893,95.438,540.376,539.14,0.0
50204.0,STARLINK-3254,PAYLOAD,2023-02-14 04:56:34,15.08840941,8.9e-05,53.2138,224.6819,87.4363,272.6731,0.00010502,1.384e-05,0.0,0 STARLINK-3254,1 50204U 21125BA  23045.20595744  .00001384  00000-0  10502-3 0  9999,2 50204  53.2138 224.6819 0000890  87.4363 272.6731 15.08840941 67781,6917.878,95.437,540.358,539.127,0.0
50204.0,STARLINK-3254,PAYLOAD,2023-02-14 14:28:53,15.08834608,9.19e-05,53.2138,222.8975,87.7194,272.3904,9.6952e-05,1.255e-05,0.0,0 STARLINK-3254,1 50204U 21125BA  23045.60340271  .00001255  00000-0  96952-4 0  9997,2 50204  53.2138 222.8975 0000919  87.7194 272.3904 15.08834608 64713,6917.897,95.438,540.398,539.126,0.0
50204.0,STARLINK-3254,PAYLOAD,2023-02-15 04:47:21,15.08843299,9.59e-05,53.2136,220.2201,77.7091,282.4009,0.00010126,1.324e-05,0.0,0 STARLINK-3254,1 50204U 21125BA  23046.19955755  .00001324  00000-0  10126-3 0  9996,2 50204  53.2136 220.2201 0000959  77.7091 282.4009 15.08843299 64808,6917.87,95.437,540.399,539.072,0.0
50204.0,STARLINK-3254,PAYLOAD,2023-02-15 11:08:55,15.08821216,0.0001113,53.2136,219.0304,83.0292,277.0826,0.00041431,6.309e-05,0.0,0 STARLINK-3254,1 50204U 21125BA  23046.46452622  .00006309  00000-0  41431-3 0  9992,2 50204  53.2136 219.0304 0001113  83.0292 277.0826 15.08821216 64840,6917.938,95.439,540.573,539.033,0.0
50204.0,STARLINK-3254,PAYLOAD,2023-02-15 20:41:12,15.08849766,0.0001281,53.2115,217.2458,78.5531,281.5605,0.0002131,3.106e-05,0.0,0 STARLINK-3254,1 50204U 21125BA  23046.86195215  .00003106  00000-0  21310-3 0  9994,2 50204  53.2115 217.2458 0001281  78.5531 281.5605 15.08849766 64900,6917.851,95.437,540.602,538.829,0.0
50204.0,STARLINK-3254,PAYLOAD,2023-02-16 14:10:27,15.08845496,0.0001704,53.2121,213.9735,82.8822,277.2364,0.00016193,2.29e-05,0.0,0 STARLINK-3254,1 50204U 21125BA  23047.59059670  .00002290  00000-0  16193-3 0  9995,2 50204  53.2121 213.9735 0001704  82.8822 277.2364 15.08845496 65012,6917.864,95.437,540.907,538.55,0.0
50204.0,STARLINK-3254,PAYLOAD,2023-02-16 17:21:13,15.08847367,0.0001223,53.2129,213.3789,89.4064,270.7068,0.00017428,2.487e-05,0.0,0 STARLINK-3254,1 50204U 21125BA  23047.72307369  .00002487  00000-0  17428-3 0  9991,2 50204  53.2129 213.3789 0001223  89.4064 270.7068 15.08847367 68167,6917.858,95.437,540.569,538.877,0.0
50204.0,STARLINK-3254,PAYLOAD,2023-02-17 12:25:52,15.08830927,0.0001076,53.2137,209.8125,85.95,274.1615,-2.1475e-05,-6.29e-06,0.0,0 STARLINK-3254,1 50204U 21125BA  23048.51796383 -.00000629  00000-0 -21475-4 0  9993,2 50204  53.2137 209.8125 0001076  85.9500 274.1615 15.08830927 65158,6917.908,95.438,540.517,539.029,0.0
50204.0,STARLINK-3254,PAYLOAD,2023-02-17 17:12:01,15.08831479,0.0001136,53.2127,208.9202,88.9086,271.2037,-7.7318e-05,-1.518e-05,0.0,0 STARLINK-3254,1 50204U 21125BA  23048.71668012 -.00001518  00000-0 -77318-4 0  9997,2 50204  53.2127 208.9202 0001136  88.9086 271.2037 15.08831479 68312,6917.906,95.438,540.557,538.986,0.0
50204.0,STARLINK-3254,PAYLOAD,2023-02-18 10:41:15,15.08840925,0.0001254,53.215,205.6519,47.6496,312.4602,0.00010687,1.413e-05,0.0,0 STARLINK-3254,1 50204U 21125BA  23049.44531657  .00001413  00000-0  10687-3 0  9999,2 50204  53.2150 205.6519 0001254  47.6496 312.4602 15.08840925 65297,6917.878,95.437,540.61,538.875,0.0
